STARLINK-36515          
1 67430U 26005AC  26027.58337963 -.01949667  00000+0 -16032-1 0  9990
2 67430  43.0000 115.0665 0001277 280.8813  55.7022 15.72443588  3494
STARLINK-36443          
1 67431U 26005AD  26027.58337963 -.01944802  00000+0 -15986-1 0  9994
2 67431  43.0002 115.0517 0001357 284.9694  57.3614 15.72443872  3529
STARLINK-36460          
1 67432U 26005AE  26027.58337963 -.01947635  00000+0 -16014-1 0  9995
2 67432  43.0001 115.0473 0001234 275.1864  69.0653 15.72443100  3577
YAOGAN-50 01            
1 67433U 26006A   26027.61666936  .00000394  00000+0  18602-3 0  9992
2 67433 142.0308 256.4651 0000676 271.3819  88.6822 13.83251348  1960
CZ-6A R/B               
1 67434U 26006B   26027.51182922  .00001803  00000+0  21440-3 0  9990
2 67434 142.0434 264.1056 0202664 183.8814 176.0331 14.62277849  2048
HULIANWANG DIGUI-137    
1 67435U 26007A   26027.55500480  .00000095  00000+0  20275-3 0  9996
2 67435  50.0072 239.0287 0000312 199.3362 160.7524 13.87427252  1941
HULIANWANG DIGUI-138    
1 67436U 26007B   26026.47709739  .00000082  00000+0  19106-3 0  9992
2 67436  50.0048 243.3223 0000258 288.4175  71.6695 13.87706745  1793
HULIANWANG DIGUI-139    
1 67437U 26007C   26027.12395299  .00000124  00000+0  22756-3 0  9990
2 67437  50.0014 240.7410 0000357 300.9338  59.1525 13.87330685  1886
HULIANWANG DIGUI-140    
1 67438U 26007D   26026.91106845  .00000113  00000+0  21971-3 0  9990
2 67438  50.0012 241.6152 0001241 160.6239 199.4705 13.86806822  1857
HULIANWANG DIGUI-141    
1 67439U 26007E   26026.97702377  .00000092  00000+0  19909-3 0  9993
2 67439  50.0069 241.2865 0001821 189.6976 170.3887 13.87816344  1861
HULIANWANG DIGUI-142    
1 67440U 26007F   26027.55106384 -.00000109  00000+0  30620-4 0  9990
2 67440  50.0109 239.0196 0000101 292.8460  67.2427 13.88085104  1941
HULIANWANG DIGUI-143    
1 67441U 26007G   26027.33352911  .00000102  00000+0  20490-3 0  9991
2 67441  50.0086 239.8646 0000267 306.4470  53.6404 13.88410379  1917
