CCSDS_OMM_VERS = 2.0
CREATION_DATE  = 
ORIGINATOR     = 

OBJECT_NAME    = STARLINK-36515
OBJECT_ID      = 2026-005AC
CENTER_NAME    = EARTH
REF_FRAME      = TEME
TIME_SYSTEM    = UTC
MEAN_ELEMENT_THEORY = SGP/SGP4

EPOCH          = 2026-01-27T14:00:04.000032
MEAN_MOTION    = 15.72443588
ECCENTRICITY   = .00012774
INCLINATION    = 43.0000
RA_OF_ASC_NODE = 115.0665
ARG_OF_PERICENTER = 280.8813
MEAN_ANOMALY   = 55.7022

EPHEMERIS_TYPE = 0
CLASSIFICATION_TYPE = U
NORAD_CAT_ID   = 67430
ELEMENT_SET_NO = 999
REV_AT_EPOCH   = 349
BSTAR          = -.16032143E-1
MEAN_MOTION_DOT = -.1949667E-1
MEAN_MOTION_DDOT = 0

CCSDS_OMM_VERS = 2.0
CREATION_DATE  = 
ORIGINATOR     = 

OBJECT_NAME    = STARLINK-36443
OBJECT_ID      = 2026-005AD
CENTER_NAME    = EARTH
REF_FRAME      = TEME
TIME_SYSTEM    = UTC
MEAN_ELEMENT_THEORY = SGP/SGP4

EPOCH          = 2026-01-27T14:00:04.000032
MEAN_MOTION    = 15.72443872
ECCENTRICITY   = .00013574
INCLINATION    = 43.0002
RA_OF_ASC_NODE = 115.0517
ARG_OF_PERICENTER = 284.9694
MEAN_ANOMALY   = 57.3614

EPHEMERIS_TYPE = 0
CLASSIFICATION_TYPE = U
NORAD_CAT_ID   = 67431
ELEMENT_SET_NO = 999
REV_AT_EPOCH   = 352
BSTAR          = -.15986183E-1
MEAN_MOTION_DOT = -.1944802E-1
MEAN_MOTION_DDOT = 0

CCSDS_OMM_VERS = 2.0
CREATION_DATE  = 
ORIGINATOR     = 

OBJECT_NAME    = STARLINK-36460
OBJECT_ID      = 2026-005AE
CENTER_NAME    = EARTH
REF_FRAME      = TEME
TIME_SYSTEM    = UTC
MEAN_ELEMENT_THEORY = SGP/SGP4

EPOCH          = 2026-01-27T14:00:04.000032
MEAN_MOTION    = 15.72443100
ECCENTRICITY   = .00012344
INCLINATION    = 43.0001
RA_OF_ASC_NODE = 115.0473
ARG_OF_PERICENTER = 275.1864
MEAN_ANOMALY   = 69.0653

EPHEMERIS_TYPE = 0
CLASSIFICATION_TYPE = U
NORAD_CAT_ID   = 67432
ELEMENT_SET_NO = 999
REV_AT_EPOCH   = 357
BSTAR          = -.16013906E-1
MEAN_MOTION_DOT = -.1947635E-1
MEAN_MOTION_DDOT = 0

CCSDS_OMM_VERS = 2.0
CREATION_DATE  = 
ORIGINATOR     = 

OBJECT_NAME    = YAOGAN-50 01
OBJECT_ID      = 2026-006A
CENTER_NAME    = EARTH
REF_FRAME      = TEME
TIME_SYSTEM    = UTC
MEAN_ELEMENT_THEORY = SGP/SGP4

EPOCH          = 2026-01-27T14:48:00.232704
MEAN_MOTION    = 13.83251348
ECCENTRICITY   = .00006761
INCLINATION    = 142.0308
RA_OF_ASC_NODE = 256.4651
ARG_OF_PERICENTER = 271.3819
MEAN_ANOMALY   = 88.6822

EPHEMERIS_TYPE = 0
CLASSIFICATION_TYPE = U
NORAD_CAT_ID   = 67433
ELEMENT_SET_NO = 999
REV_AT_EPOCH   = 196
BSTAR          = .1860231E-3
MEAN_MOTION_DOT = .394E-5
MEAN_MOTION_DDOT = 0

CCSDS_OMM_VERS = 2.0
CREATION_DATE  = 
ORIGINATOR     = 

OBJECT_NAME    = CZ-6A R/B
OBJECT_ID      = 2026-006B
CENTER_NAME    = EARTH
REF_FRAME      = TEME
TIME_SYSTEM    = UTC
MEAN_ELEMENT_THEORY = SGP/SGP4

EPOCH          = 2026-01-27T12:17:02.044608
MEAN_MOTION    = 14.62277849
ECCENTRICITY   = .02026643
INCLINATION    = 142.0434
RA_OF_ASC_NODE = 264.1056
ARG_OF_PERICENTER = 183.8814
MEAN_ANOMALY   = 176.0331

EPHEMERIS_TYPE = 0
CLASSIFICATION_TYPE = U
NORAD_CAT_ID   = 67434
ELEMENT_SET_NO = 999
REV_AT_EPOCH   = 204
BSTAR          = .21439517E-3
MEAN_MOTION_DOT = .1803E-4
MEAN_MOTION_DDOT = 0

CCSDS_OMM_VERS = 2.0
CREATION_DATE  = 
ORIGINATOR     = 

OBJECT_NAME    = HULIANWANG DIGUI-137
OBJECT_ID      = 2026-007A
CENTER_NAME    = EARTH
REF_FRAME      = TEME
TIME_SYSTEM    = UTC
MEAN_ELEMENT_THEORY = SGP/SGP4

EPOCH          = 2026-01-27T13:19:12.414720
MEAN_MOTION    = 13.87427252
ECCENTRICITY   = .00003126
INCLINATION    = 50.0072
RA_OF_ASC_NODE = 239.0287
ARG_OF_PERICENTER = 199.3362
MEAN_ANOMALY   = 160.7524

EPHEMERIS_TYPE = 0
CLASSIFICATION_TYPE = U
NORAD_CAT_ID   = 67435
ELEMENT_SET_NO = 999
REV_AT_EPOCH   = 194
BSTAR          = .2027521E-3
MEAN_MOTION_DOT = .95E-6
MEAN_MOTION_DDOT = 0

CCSDS_OMM_VERS = 2.0
CREATION_DATE  = 
ORIGINATOR     = 

OBJECT_NAME    = HULIANWANG DIGUI-138
OBJECT_ID      = 2026-007B
CENTER_NAME    = EARTH
REF_FRAME      = TEME
TIME_SYSTEM    = UTC
MEAN_ELEMENT_THEORY = SGP/SGP4

EPOCH          = 2026-01-26T11:27:01.214496
MEAN_MOTION    = 13.87706745
ECCENTRICITY   = .00002583
INCLINATION    = 50.0048
RA_OF_ASC_NODE = 243.3223
ARG_OF_PERICENTER = 288.4175
MEAN_ANOMALY   = 71.6695

EPHEMERIS_TYPE = 0
CLASSIFICATION_TYPE = U
NORAD_CAT_ID   = 67436
ELEMENT_SET_NO = 999
REV_AT_EPOCH   = 179
BSTAR          = .19105821E-3
MEAN_MOTION_DOT = .82E-6
MEAN_MOTION_DDOT = 0

CCSDS_OMM_VERS = 2.0
CREATION_DATE  = 
ORIGINATOR     = 

OBJECT_NAME    = HULIANWANG DIGUI-139
OBJECT_ID      = 2026-007C
CENTER_NAME    = EARTH
REF_FRAME      = TEME
TIME_SYSTEM    = UTC
MEAN_ELEMENT_THEORY = SGP/SGP4

EPOCH          = 2026-01-27T02:58:29.538336
MEAN_MOTION    = 13.87330685
ECCENTRICITY   = .00003574
INCLINATION    = 50.0014
RA_OF_ASC_NODE = 240.7410
ARG_OF_PERICENTER = 300.9338
MEAN_ANOMALY   = 59.1525

EPHEMERIS_TYPE = 0
CLASSIFICATION_TYPE = U
NORAD_CAT_ID   = 67437
ELEMENT_SET_NO = 999
REV_AT_EPOCH   = 188
BSTAR          = .22755974E-3
MEAN_MOTION_DOT = .124E-5
MEAN_MOTION_DDOT = 0

CCSDS_OMM_VERS = 2.0
CREATION_DATE  = 
ORIGINATOR     = 

OBJECT_NAME    = HULIANWANG DIGUI-140
OBJECT_ID      = 2026-007D
CENTER_NAME    = EARTH
REF_FRAME      = TEME
TIME_SYSTEM    = UTC
MEAN_ELEMENT_THEORY = SGP/SGP4

EPOCH          = 2026-01-26T21:51:56.314080
MEAN_MOTION    = 13.86806822
ECCENTRICITY   = .00012413
INCLINATION    = 50.0012
RA_OF_ASC_NODE = 241.6152
ARG_OF_PERICENTER = 160.6239
MEAN_ANOMALY   = 199.4705

EPHEMERIS_TYPE = 0
CLASSIFICATION_TYPE = U
NORAD_CAT_ID   = 67438
ELEMENT_SET_NO = 999
REV_AT_EPOCH   = 185
BSTAR          = .21971381E-3
MEAN_MOTION_DOT = .113E-5
MEAN_MOTION_DDOT = 0

CCSDS_OMM_VERS = 2.0
CREATION_DATE  = 
ORIGINATOR     = 

OBJECT_NAME    = HULIANWANG DIGUI-141
OBJECT_ID      = 2026-007E
CENTER_NAME    = EARTH
REF_FRAME      = TEME
TIME_SYSTEM    = UTC
MEAN_ELEMENT_THEORY = SGP/SGP4

EPOCH          = 2026-01-26T23:26:54.853728
MEAN_MOTION    = 13.87816344
ECCENTRICITY   = .00018214
INCLINATION    = 50.0069
RA_OF_ASC_NODE = 241.2865
ARG_OF_PERICENTER = 189.6976
MEAN_ANOMALY   = 170.3887

EPHEMERIS_TYPE = 0
CLASSIFICATION_TYPE = U
NORAD_CAT_ID   = 67439
ELEMENT_SET_NO = 999
REV_AT_EPOCH   = 186
BSTAR          = .19909244E-3
MEAN_MOTION_DOT = .92E-6
MEAN_MOTION_DDOT = 0

CCSDS_OMM_VERS = 2.0
CREATION_DATE  = 
ORIGINATOR     = 

OBJECT_NAME    = HULIANWANG DIGUI-142
OBJECT_ID      = 2026-007F
CENTER_NAME    = EARTH
REF_FRAME      = TEME
TIME_SYSTEM    = UTC
MEAN_ELEMENT_THEORY = SGP/SGP4

EPOCH          = 2026-01-27T13:13:31.915776
MEAN_MOTION    = 13.88085104
ECCENTRICITY   = .0000101
INCLINATION    = 50.0109
RA_OF_ASC_NODE = 239.0196
ARG_OF_PERICENTER = 292.8460
MEAN_ANOMALY   = 67.2427

EPHEMERIS_TYPE = 0
CLASSIFICATION_TYPE = U
NORAD_CAT_ID   = 67440
ELEMENT_SET_NO = 999
REV_AT_EPOCH   = 194
BSTAR          = .30619556E-4
MEAN_MOTION_DOT = -.109E-5
MEAN_MOTION_DDOT = 0

CCSDS_OMM_VERS = 2.0
CREATION_DATE  = 
ORIGINATOR     = 

OBJECT_NAME    = HULIANWANG DIGUI-143
OBJECT_ID      = 2026-007G
CENTER_NAME    = EARTH
REF_FRAME      = TEME
TIME_SYSTEM    = UTC
MEAN_ELEMENT_THEORY = SGP/SGP4

EPOCH          = 2026-01-27T08:00:16.915104
MEAN_MOTION    = 13.88410379
ECCENTRICITY   = .00002679
INCLINATION    = 50.0086
RA_OF_ASC_NODE = 239.8646
ARG_OF_PERICENTER = 306.4470
MEAN_ANOMALY   = 53.6404

EPHEMERIS_TYPE = 0
CLASSIFICATION_TYPE = U
NORAD_CAT_ID   = 67441
ELEMENT_SET_NO = 999
REV_AT_EPOCH   = 191
BSTAR          = .20490217E-3
MEAN_MOTION_DOT = .102E-5
MEAN_MOTION_DDOT = 0

